OBJECT_NAME,OBJECT_ID,EPOCH,MEAN_MOTION,ECCENTRICITY,INCLINATION,RA_OF_ASC_NODE,ARG_OF_PERICENTER,MEAN_ANOMALY,EPHEMERIS_TYPE,CLASSIFICATION_TYPE,NORAD_CAT_ID,ELEMENT_SET_NO,REV_AT_EPOCH,BSTAR,MEAN_MOTION_DOT,MEAN_MOTION_DDOT
TIANMU-1 20,2023-208B,2026-06-17T14:03:34.841088,15.32769336,.00059845,97.4452,285.5230,332.2747,27.8175,0,U,58661,999,13748,.20592287E-3,.644E-4,0
TIANMU-1 21,2023-208C,2026-06-17T13:45:55.868256,15.35082305,.00059371,97.4513,288.1929,322.0075,38.0749,0,U,58662,999,13762,.21887598E-3,.7372E-4,0
TIANMU-1 22,2023-208D,2026-06-17T14:17:38.342688,15.31062466,.00031593,97.4506,284.8327,2.6328,357.4929,0,U,58663,999,13739,.20223454E-3,.5991E-4,0
TIANMU-1 15,2024-004A,2026-06-17T14:56:55.281984,15.27026943,.00066529,97.4666,354.8129,0.8679,359.2570,0,U,58700,999,13584,.16477345E-3,.4297E-4,0
TIANMU-1 16,2024-004B,2026-06-17T14:41:32.123904,15.26752011,.00057881,97.4613,354.0386,6.5286,353.6027,0,U,58701,999,13584,.16964466E-3,.4389E-4,0
TIANMU-1 17,2024-004C,2026-06-17T14:20:35.335680,15.26751059,.0005488,97.4640,354.5092,13.1562,346.9818,0,U,58702,999,13583,.17265061E-3,.4467E-4,0
TIANMU-1 18,2024-004D,2026-06-17T15:20:51.215424,15.27009025,.00040032,97.4658,354.8068,13.7655,346.3692,0,U,58703,999,13584,.16556153E-3,.4314E-4,0
INSAT-3DS,2024-033A,2026-06-16T16:49:38.025984,1.00271371,.00010011,0.0433,112.2519,322.3943,164.8294,0,U,58990,999,4706,0,-.158E-5,0
METEOR-M2 4,2024-039A,2026-06-17T14:31:53.958432,14.22429546,.00073155,98.7010,127.8982,159.7728,200.3741,0,U,59051,999,11932,.20069238E-4,.1E-7,0
GOES 19,2024-119A,2026-06-16T14:22:05.433600,1.00271370,.00003874,0.0076,86.7798,98.2994,220.1202,0,U,60133,999,695,0,-.25E-5,0
MTG-S1,2025-143A,2026-06-16T22:04:38.847648,1.00272144,.00009903,0.6031,338.9275,12.3541,241.5942,0,U,64723,999,341,0,-.34E-6,0
METOP-SGA1,2025-172A,2026-06-16T03:40:47.624736,14.21509720,.0000902,98.6644,226.8998,93.8213,266.3067,0,U,65159,999,4364,.41999845E-4,.49E-6,0
FENGYUN 3H,2025-219A,2026-06-17T11:07:56.996832,14.19920485,.00015971,98.6768,109.2276,76.6448,283.4906,0,U,65815,999,3742,.36652938E-4,.34E-6,0
