TIANMU-1 20             
1 58661U 23208B   26168.58581992  .00006440  00000+0  20592-3 0  9995
2 58661  97.4452 285.5230 0005984 332.2747  27.8175 15.32769336137486
TIANMU-1 21             
1 58662U 23208C   26168.57356329  .00007372  00000+0  21888-3 0  9993
2 58662  97.4513 288.1929 0005937 322.0075  38.0749 15.35082305137622
TIANMU-1 22             
1 58663U 23208D   26168.59558267  .00005991  00000+0  20223-3 0  9998
2 58663  97.4506 284.8327 0003159   2.6328 357.4929 15.31062466137390
TIANMU-1 15             
1 58700U 24004A   26168.62286206  .00004297  00000+0  16477-3 0  9994
2 58700  97.4666 354.8129 0006652   0.8679 359.2570 15.27026943135842
TIANMU-1 16             
1 58701U 24004B   26168.61217736  .00004389  00000+0  16964-3 0  9999
2 58701  97.4613 354.0386 0005788   6.5286 353.6027 15.26752011135844
TIANMU-1 17             
1 58702U 24004C   26168.59763120  .00004467  00000+0  17265-3 0  9992
2 58702  97.4640 354.5092 0005488  13.1562 346.9818 15.26751059135835
TIANMU-1 18             
1 58703U 24004D   26168.63948166  .00004314  00000+0  16556-3 0  9996
2 58703  97.4658 354.8068 0004003  13.7655 346.3692 15.27009025135847
INSAT-3DS               
1 58990U 24033A   26167.70113456 -.00000158  00000+0  00000+0 0  9995
2 58990   0.0433 112.2519 0001001 322.3943 164.8294  1.00271371 47065
METEOR-M2 4             
1 59051U 24039A   26168.60548563  .00000001  00000+0  20069-4 0  9999
2 59051  98.7010 127.8982 0007315 159.7728 200.3741 14.22429546119321
GOES 19                 
1 60133U 24119A   26167.59867400 -.00000250  00000+0  00000+0 0  9997
2 60133   0.0076  86.7798 0000387  98.2994 220.1202  1.00271370  6952
MTG-S1                  
1 64723U 25143A   26167.91989407 -.00000034  00000+0  00000+0 0  9992
2 64723   0.6031 338.9275 0000990  12.3541 241.5942  1.00272144  3411
METOP-SGA1              
1 65159U 25172A   26167.15332899  .00000049  00000+0  42000-4 0  9997
2 65159  98.6644 226.8998 0000902  93.8213 266.3067 14.21509720 43644
FENGYUN 3H              
1 65815U 25219A   26168.46385413  .00000034  00000+0  36653-4 0  9994
2 65815  98.6768 109.2276 0001597  76.6448 283.4906 14.19920485 37426
